[{"OBJECT_NAME":"YAOGAN-14","OBJECT_ID":"2012-021A","EPOCH":"2026-03-09T23:13:16.463424","MEAN_MOTION":15.26486019,"ECCENTRICITY":0.00056417,"INCLINATION":97.2863,"RA_OF_ASC_NODE":208.4378,"ARG_OF_PERICENTER":161.6562,"MEAN_ANOMALY":198.4882,"EPHEMERIS_TYPE":0,"CLASSIFICATION_TYPE":"U","NORAD_CAT_ID":38257,"ELEMENT_SET_NO":999,"REV_AT_EPOCH":77067,"BSTAR":0.00037795498,"MEAN_MOTION_DOT":9.798e-5,"MEAN_MOTION_DDOT":0},{"OBJECT_NAME":"STARLINK-30799","OBJECT_ID":"2023-162D","EPOCH":"2026-03-09T22:00:01.999584","MEAN_MOTION":15.26749538,"ECCENTRICITY":0.00012809,"INCLINATION":43.001,"RA_OF_ASC_NODE":130.8272,"ARG_OF_PERICENTER":265.6267,"MEAN_ANOMALY":184.5195,"EPHEMERIS_TYPE":0,"CLASSIFICATION_TYPE":"U","NORAD_CAT_ID":58121,"ELEMENT_SET_NO":999,"REV_AT_EPOCH":537,"BSTAR":-0.00033383147,"MEAN_MOTION_DOT":-9.206e-5,"MEAN_MOTION_DDOT":0}]
